{
    "links": {
        "self": "http://www.neowsapp.com/rest/v1/neo/3743741?api_key=iIulBulltgU6a56xZRHN4H3l9WmuAYTsLGpBGhQ2"
    },
    "id": "3743741",
    "neo_reference_id": "3743741",
    "name": "(2016 CO195)",
    "designation": "2016 CO195",
    "nasa_jpl_url": "http://ssd.jpl.nasa.gov/sbdb.cgi?sstr=3743741",
    "absolute_magnitude_h": 26.3,
    "estimated_diameter": {
        "kilometers": {
            "estimated_diameter_min": 0.0146067964,
            "estimated_diameter_max": 0.0326617897
        },
        "meters": {
            "estimated_diameter_min": 14.6067964271,
            "estimated_diameter_max": 32.6617897446
        },
        "miles": {
            "estimated_diameter_min": 0.0090762397,
            "estimated_diameter_max": 0.020295089
        },
        "feet": {
            "estimated_diameter_min": 47.92256199,
            "estimated_diameter_max": 107.1581062656
        }
    },
    "is_potentially_hazardous_asteroid": false,
    "close_approach_data": [
        {
            "close_approach_date": "2003-03-02",
            "close_approach_date_full": "2003-Mar-02 14:20",
            "epoch_date_close_approach": 1046614800000,
            "relative_velocity": {
                "kilometers_per_second": "3.7549047844",
                "kilometers_per_hour": "13517.6572238846",
                "miles_per_hour": "8399.3465122521"
            },
            "miss_distance": {
                "astronomical": "0.0864065883",
                "lunar": "33.6121628487",
                "kilometers": "12926241.563646921",
                "miles": "8031994.0591366698"
            },
            "orbiting_body": "Earth"
        },
        {
            "close_approach_date": "2016-02-29",
            "close_approach_date_full": "2016-Feb-29 14:26",
            "epoch_date_close_approach": 1456755960000,
            "relative_velocity": {
                "kilometers_per_second": "3.5960866291",
                "kilometers_per_hour": "12945.9118648981",
                "miles_per_hour": "8044.0861807196"
            },
            "miss_distance": {
                "astronomical": "0.0732539292",
                "lunar": "28.4957784588",
                "kilometers": "10958631.777450804",
                "miles": "6809378.0314529352"
            },
            "orbiting_body": "Earth"
        },
        {
            "close_approach_date": "2029-02-27",
            "close_approach_date_full": "2029-Feb-27 02:16",
            "epoch_date_close_approach": 1866852960000,
            "relative_velocity": {
                "kilometers_per_second": "4.2338071866",
                "kilometers_per_hour": "15241.7058716843",
                "miles_per_hour": "9470.6032956585"
            },
            "miss_distance": {
                "astronomical": "0.1076484183",
                "lunar": "41.8752347187",
                "kilometers": "16103974.086549021",
                "miles": "10006545.4877016498"
            },
            "orbiting_body": "Earth"
        },
        {
            "close_approach_date": "2089-03-02",
            "close_approach_date_full": "2089-Mar-02 07:54",
            "epoch_date_close_approach": 3760588440000,
            "relative_velocity": {
                "kilometers_per_second": "3.6180515324",
                "kilometers_per_hour": "13024.9855165923",
                "miles_per_hour": "8093.2194727959"
            },
            "miss_distance": {
                "astronomical": "0.0775620843",
                "lunar": "30.1716507927",
                "kilometers": "11603122.604040441",
                "miles": "7209846.0611464458"
            },
            "orbiting_body": "Earth"
        },
        {
            "close_approach_date": "2099-04-26",
            "close_approach_date_full": "2099-Apr-26 02:07",
            "epoch_date_close_approach": 4080852420000,
            "relative_velocity": {
                "kilometers_per_second": "8.1934327745",
                "kilometers_per_hour": "29496.3579880446",
                "miles_per_hour": "18327.8897731825"
            },
            "miss_distance": {
                "astronomical": "0.0951261718",
                "lunar": "37.0040808302",
                "kilometers": "14230672.682534066",
                "miles": "8842529.9713634708"
            },
            "orbiting_body": "Mars"
        }
    ],
    "orbital_data": {
        "orbit_id": "7",
        "orbit_determination_date": "2017-04-06 08:28:18",
        "first_observation_date": "2016-02-11",
        "last_observation_date": "2016-03-04",
        "data_arc_in_days": 22,
        "observations_used": 24,
        "orbit_uncertainty": "7",
        "minimum_orbit_intersection": ".0727019",
        "jupiter_tisserand_invariant": "4.765",
        "epoch_osculation": "2459000.5",
        "eccentricity": ".2301636084185626",
        "semi_major_axis": "1.381319585443225",
        "inclination": "5.511757472532106",
        "ascending_node_longitude": "338.352682230013",
        "orbital_period": "592.9795024004927",
        "perihelion_distance": "1.063390085278379",
        "perihelion_argument": "179.355871521231",
        "aphelion_distance": "1.699249085608071",
        "perihelion_time": "2459224.321392492451",
        "mean_anomaly": "224.1172233254321",
        "mean_motion": ".607103615795575",
        "equinox": "J2000",
        "orbit_class": {
            "orbit_class_type": "AMO",
            "orbit_class_description": "Near-Earth asteroid orbits similar to that of 1221 Amor",
            "orbit_class_range": "1.017 AU < q (perihelion) < 1.3 AU"
        }
    },
    "is_sentry_object": false
}